#dP2023 11  3 18  0  0.00000000      96 __u+U IGS20 EXT  IAC
## 2286 496800.00000000   900.00000000 60251 0.7500000000000
+  116   C06C07C08C09C10C11C12C13C14C16C19C20C21C22C23C24C25
+        C26C27C28C29C30C32C33C34C35C36C37C38C39C40C41C42C43
+        C44C45C46E02E03E04E05E07E08E09E10E11E12E13E15E19E21
+        E24E25E26E27E30E31E33E34E36G01G02G03G04G05G06G07G08
+        G09G10G11G12G13G14G16G17G18G19G20G21G22G23G24G25G26
+        G27G28G29G30G31G32J03J04R01R02R03R04R05R07R08R09R11
+        R12R13R14R15R16R17R18R19R20R21R22R24R25R26  0  0  0
++        11  8  9 10 10  9 10  9  9 10  8 10  8  8  8  8  9
++         7  7  6  9  7  9  8  7  0  8  7  9  9 10  8  9 10
++         8  8  9  7  7  7  7  6  7  6  8  8  8  6  7  7  8
++         7  8  7  6  7  7  6  7  6  9  7  7  6  8  7  7  7
++         6  7  7  7  7  7  7  6 10  7  8  7  8  7  7  7  7
++         7  7  7  8  7  6 10  8  9  9  8  8  9  9  6  9  8
++         9  9  8  6  9  6  9  7 10  8  8  8  9 10  0  0  0
%c M  cc GPS ccc cccc cccc cccc cccc ccccc ccccc ccccc ccccc
%c cc cc ccc ccc cccc cccc cccc cccc ccccc ccccc ccccc ccccc
%f  0.0000000  0.000000000  0.00000000000  0.000000000000000
%f  0.0000000  0.000000000  0.00000000000  0.000000000000000
%i    0    0    0    0      0      0      0      0         0
%i    0    0    0    0      0      0      0      0         0
/* IAC                                ULTRA-RAPID PREDICTION
/* S/V CLOCKS ARE ALIGNED TO GNSS TIME                      
/* G:C1WC2W R:C1PC2P E:C1XC5X C:C2IC6I J:C1CC2S             
/* PCV:IGS20_2280 OL/AL:FES2004  NONE     YN ORB:CoN CLK:CoN
*  2023 11 03 23  0  0.00000000
PC06 -18364.679726  31949.840961 -20697.987276     83.521515
PC07  -5354.789850  38081.158068 -16985.186038   -262.193528
PC08  -4562.329767  20071.178475  36802.174262    260.731647
PC09 -11591.533982  30513.505964 -26586.646186    -43.101655
PC10   1769.565728  40556.891404  -9984.249990     -4.282473
PC11  19800.795647  -4105.260552  19317.941495    237.748304
PC12   8264.933265  13952.560738  22754.939279    872.254105
PC13   2112.450724  23365.736777  35228.486785    377.451367
PC14  17833.718635   6050.836390 -20570.996283    714.051052
PC16 -22484.717435  31421.671723 -17014.133613   -157.808573
PC19 -15065.943078   4516.774960  23067.024739   -974.812653
PC20 -17872.934717 -14212.716017  16058.557266    147.651373
PC21  10039.126853  25994.128477   1337.182690   -969.096273
PC22  -3443.400302  21713.428117  17165.725346   -239.567792
PC23  12808.673540 -13536.503531  20775.966401   -829.161123
PC24  24772.260534   9422.053863  -8798.707520    560.811724
PC25  26065.032995  -4049.709248   9133.020412    247.624269
PC26   9900.611849  15929.671161 -20691.265753   -201.119770
PC27  -1298.535024 -20263.539549 -19155.004970    222.978310
PC28  12946.861529 -23938.476449  -6178.230273    168.091874
PC29 -20675.472092  13692.098305 -12796.554088    196.589936
PC30 -15440.391910  -5583.107714 -22569.213485     -7.668986
PC32 -10184.874237 -25944.315070  -1443.290178   -532.747297
PC33  15097.653270  -4519.803599 -23034.454013   -947.544746
PC34  16282.687772   4152.860376  22269.862558    295.580685
PC35 -11941.896703  24444.776419   6280.903928    510.801198
PC36 -26454.760565   2862.697327  -8365.873248   -150.095919
PC37  -8671.919029 -16242.729460  20970.356131   -874.347786
PC38 -13898.057945  18888.482484  35057.738622    115.415281
PC39 -24146.405743  32316.385242 -12665.823329     -5.513516
PC40  -9666.668031  35276.103942 -20724.849628    -42.614275
PC41   3910.183796 -21261.123202 -17604.228581   -871.495040
PC42  17710.666989  15556.974970 -14885.061469   -506.852546
PC43  20790.168337 -12839.862655  13458.180052     46.763955
PC44   1963.673834  20403.927278  18938.515390    281.892821
PC45 -12186.920765  13632.835786 -21075.488711    -42.661648
PC46 -25306.387566  -8754.521621   7768.961900    -96.971753
PE02  22379.410663  19381.313070   -582.928844     75.460395
PE03  12108.259765  16895.738792 -21081.905688    -70.796319
PE04 -17474.763399   4974.688048  23366.711807   -249.342770
PE05   -250.033327  28859.050758  -6588.242782     33.920968
PE07  12772.363356 -23735.363534 -12244.139805    -85.896038
PE08  17326.987838  -4391.655367 -23603.033864   -171.530586
PE09 -12737.178453  23656.738426  12404.201778   -214.968472
PE10 -26961.596319  11890.139594   2727.106809   -576.161718
PE11 -21036.607392  16493.300793  12711.537973   3169.599917
PE12 -28261.016903   5859.287047  -6586.734858   -762.695571
PE13  21572.794974 -16255.743970 -12101.003802    -19.611680
PE15  28198.676233  -5574.295751   7084.948516    -66.579610
PE19 -10617.226333 -19189.907206  19875.677397  -1288.510946
PE21  -8662.556107 -22574.210047  17072.670807   -562.301529
PE24 -11312.812498  12477.352631 -24352.872767   -412.023887
PE25   8326.168125  22513.312289 -17319.038086     -3.740096
PE26   1622.001338 -17253.906444 -23989.328382    270.539281
PE27  10797.392679 -12844.443873  24388.641096   -191.013706
PE30  23792.469888   4716.100170  16970.357199   -633.248087
PE31 -23655.736728  -4333.498952 -17243.792499     -9.343205
PE33 -17683.976865  -8598.158812 -22113.180579      1.618111
PE34  18255.080248   8170.003895  21827.426019    -75.998857
PE36  -2423.674090  17270.116859  23923.564064   -139.089889
PG01   1923.153200 -15643.319373 -21658.348245    163.243302
PG02   8385.847613 -17283.092519 -17752.714608   -533.626961
PG03  -7629.940477 -20188.828411 -15697.097428    -37.600932
PG04     38.337346 -25384.055003   7594.873039    203.017904
PG05  -5761.495826  14203.824841  21502.006540   -149.024806
PG06 -25564.226859   5590.386570  -4774.805996    515.048830
PG07 -16281.544535  -9018.674229  19593.722636     22.830508
PG08   5215.741220 -25732.443060   1987.383494   -150.397457
PG09  -8228.790698 -19619.684030  15777.845045    -13.423595
PG10  22391.886229   8920.027221 -11334.203168    -59.982286
PG11 -22452.754153  12140.412820   7263.654654   -444.624450
PG12   4252.124352  20367.739889 -16828.385363   -443.129624
PG13 -13352.938118  20874.578124   9057.200177    591.380125
PG14 -22345.687442 -11803.480349  -8431.685081    233.085843
PG16  12218.083669  -8924.504306  21538.346902   -428.211926
PG17 -13970.858407  -4955.778148 -21597.246683    723.520052
PG18  17506.111049   7401.006861  18640.155671   -468.719472
PG19 -16061.814746   4159.395444 -20854.508871    394.020430
PG20 -16613.534515   6542.643520  19650.783539    403.449661
PG21  11176.543585 -17288.129247 -15729.108612    145.183625
PG22 -20824.581228  -6879.060614 -14329.114450     90.519587
PG23  20717.880640  16777.529243    377.819811     93.066791
PG24  -5792.096084  18080.382761 -18801.386195   -362.668615
PG25  16066.409132  20065.465071  -7544.795922    475.796092
PG26  19621.213971  -2094.712431  17809.383418    219.045229
PG27  12649.215988 -18696.477383  13395.413975    -64.888737
PG28  25184.951605  -4902.320168  -6896.101548    -38.494408
PG29   5963.578299  20288.142254  15963.194482   -610.230519
PG30 -23482.782032  -1571.487877  12684.493156   -471.972801
PG31  24857.615329  -9768.994661   1870.943167   -225.379234
PG32  15244.722855    297.503146 -21552.328501   -581.364678
PJ03 -29503.024550  30019.198361   8316.098326     -7.066176
PJ04 -26313.081091  26905.084423  24902.416465     71.903818
PR01   8020.313291  23869.752954  -4064.764333     69.046874
PR02  11731.322077  12193.058370 -19080.537022    -22.360646
PR03   9440.359349  -6725.518620 -22676.041167     88.345043
PR04   1949.841723 -21362.983864 -13763.388335    209.596926
PR05  -6437.966014 -24527.367769   2613.802997    121.668697
PR07  -9161.905618   7728.973228  22557.046703     68.328904
PR08  -1803.212245  21523.495303  13655.133028    -73.170220
PR09 -24145.227157  -8010.140733   2402.178032    151.261009
PR11  -7656.240928   8915.892928 -22630.917391   -210.645816
PR12  12692.477845  12886.878632 -17969.209846     33.050856
PR13  23353.528925   9174.064283  -4622.159810    -40.904463
PR14  21160.864094   -877.137810  14214.857071     25.505808
PR15   6291.968234  -9541.172755  22822.441790     84.932366
PR16 -12517.175415 -12719.845497  18249.759820     20.284962
PR17  20204.699807 -13396.222443   8027.201890     31.679999
PR18  15123.791736 -18618.975704  -8593.980651    110.169404
PR19   4070.557514 -15106.041611 -20144.403334   -253.334338
PR20 -13788.348172   -919.168167 -21434.008015   -102.907182
PR21 -20237.564770  13670.955287  -7296.802113    -50.639039
PR22 -14955.272065  18357.544159   9527.773362     91.821023
PR24  14481.956921    254.382734  21026.102077    -30.773048
PR25 -20797.140783  12421.859254  -7940.684232     -6.510660
PR26  -1950.165960  21177.113930  14086.702386    -18.184636
EOF
